TEVEL2-4                
1 63213U 25052D   26068.69417973  .00020990  00000+0  70363-3 0  9998
2 63213  97.4009 325.1237 0004733  95.3468 264.8313 15.30925813 54879
STARLINK-34365          
1 64671U 25139H   26068.44965946  .00026197  00000+0  89298-3 0  9996
2 64671  53.1567 128.4161 0001097  93.2285 266.8841 15.30218259 40300
